{
  "norad_id": 62974,
  "name": "HULIANWANG DIGUI-14",
  "history": [
    {
      "epoch": "2026-03-28T18:14:09.378528Z",
      "apogee_km": 1149.994665891435,
      "perigee_km": 1148.6324984340881,
      "latitude_deg": -4.44914370532724e-05,
      "longitude_deg": 64.3681264071293,
      "height_km": 1150.1402780506908,
      "semi_major_axis_km": 7527.450582162762,
      "eccentricity": 9.048e-05,
      "inclination_deg": 50.0022,
      "raan_deg": 164.0829,
      "arg_perigee_deg": 242.0079,
      "mean_anomaly_deg": 118.0701,
      "mean_motion_rev_day": 13.29324143
    },
    {
      "epoch": "2026-03-29T05:03:42.458112Z",
      "apogee_km": 1150.0007138120145,
      "perigee_km": 1148.62620135846,
      "latitude_deg": -2.542921462640671e-05,
      "longitude_deg": -100.0820913515877,
      "height_km": 1150.1249444158825,
      "semi_major_axis_km": 7527.450457585237,
      "eccentricity": 9.13e-05,
      "inclination_deg": 50.0022,
      "raan_deg": 162.4651,
      "arg_perigee_deg": 243.706,
      "mean_anomaly_deg": 116.3718,
      "mean_motion_rev_day": 13.29324176
    },
    {
      "epoch": "2026-03-30T04:31:04.130400Z",
      "apogee_km": 1150.0002720877856,
      "perigee_km": 1148.6257597148815,
      "latitude_deg": 2.845107263774368e-05,
      "longitude_deg": -96.39095147083933,
      "height_km": 1150.0857642235892,
      "semi_major_axis_km": 7527.450015901333,
      "eccentricity": 9.13e-05,
      "inclination_deg": 50.002,
      "raan_deg": 158.9598,
      "arg_perigee_deg": 247.2562,
      "mean_anomaly_deg": 112.8214,
      "mean_motion_rev_day": 13.29324293
    },
    {
      "epoch": "2026-03-30T04:31:04.131264Z",
      "apogee_km": 1149.9987816994599,
      "perigee_km": 1148.6272803038128,
      "latitude_deg": 7.064038722932255e-06,
      "longitude_deg": -96.39097293389608,
      "height_km": 1150.0862300630995,
      "semi_major_axis_km": 7527.4500310016365,
      "eccentricity": 9.11e-05,
      "inclination_deg": 50.002,
      "raan_deg": 158.9598,
      "arg_perigee_deg": 247.1626,
      "mean_anomaly_deg": 112.915,
      "mean_motion_rev_day": 13.29324289
    },
    {
      "epoch": "2026-03-30T13:32:21.698592Z",
      "apogee_km": 1150.0001890285357,
      "perigee_km": 1148.6256766707966,
      "latitude_deg": -5.764614954044184e-05,
      "longitude_deg": 126.56717453381411,
      "height_km": 1150.0714726219408,
      "semi_major_axis_km": 7527.449932849666,
      "eccentricity": 9.13e-05,
      "inclination_deg": 50.002,
      "raan_deg": 157.6117,
      "arg_perigee_deg": 248.5364,
      "mean_anomaly_deg": 111.541,
      "mean_motion_rev_day": 13.29324315
    }
  ]
}